GALAXY 3C (G-3C)        
1 27445U 02030A   19250.62722990 -.00000173  00000-0  00000-0 0  9993
2 27445   0.0197 257.6940 0001569  75.1606 144.3133  1.00271132 21694
IRIDIUM 97              
1 27450U 02031A   19250.89091687  .00000142  00000-0  39986-4 0  9995
2 27450  86.4265 339.2958 0002261  89.4660 270.6797 14.38568004906905
EUTELSAT 5 WEST A       
1 27460U 02035A   19250.93238111 -.00000065  00000-0  00000-0 0  9996
2 27460   0.0233 127.4280 0005722  28.7288 161.2130  1.00271308 62806
N-STAR C                
1 27461U 02035B   19250.86382887 -.00000333  00000-0  00000-0 0  9997
2 27461   6.1165  60.4279 0003049  33.5666 339.6423  1.00270002 62925
COSMOS 2390             
1 27464U 02036A   19250.73175293  .00000023  00000-0  94044-4 0  9998
2 27464  82.4798  92.0821 0024363 271.7388  88.0891 12.44570383780005
COSMOS 2391             
1 27465U 02036B   19250.74297453  .00000018  00000-0  58883-4 0  9998
2 27465  82.4795  89.6226 0025708 270.6078  89.2040 12.44889202780194
METEOSAT-8 (MSG-1)      
1 27509U 02040B   19250.73521535  .00000117  00000-0  00000-0 0  9996
2 27509   6.2281  55.2510 0000807  23.8469 213.5411  1.00267582 62432
INTELSAT 906 (IS-906)   
1 27513U 02041A   19250.85882650 -.00000008  00000-0  00000+0 0  9992
2 27513   0.0146 173.5810 0002822  19.8096 166.5761  1.00272607 62165
HISPASAT 30W-4          
1 27528U 02044A   19250.85552628 -.00000240  00000-0  00000-0 0  9999
2 27528   0.4132  95.6569 0005498  78.9994  89.7920  1.00271572 18164
INTEGRAL                
1 27540U 02048A   19247.27751098  .00000714  00000-0  00000+0 0  9995
2 27540  50.3978 137.5783 8829798 281.3833   3.2392  0.37599850 17312
TDRS 10                 
1 27566U 02055A   19250.75564117  .00000071  00000-0  00000+0 0  9998
2 27566   6.4151  54.8753 0003726 294.6183  97.8786  1.00273044 61416
NSS-6                   
1 27603U 02057A   19250.90744160 -.00000219  00000-0  00000-0 0  9993
2 27603   0.0926 279.1718 0005902 258.5508  48.8456  1.00272415 61285
LATINSAT B              
1 27606U 02058B   19250.85427266 -.00000054  00000-0  13922-4 0  9994
2 27606  64.5544 233.4460 0089182 245.2136 113.9668 14.72231824897512
SAUDISAT 1C (SO-50)     
1 27607U 02058C   19251.21486530 -.00000056  00000-0  13116-4 0  9992
2 27607  64.5552 160.3490 0077592 240.7905 118.5421 14.75569420899068
LATINSAT A              
1 27612U 02058H   19250.86935214 -.00000033  00000-0  15216-4 0  9994
2 27612  64.5564  34.7263 0050189 231.3255 128.3354 14.79436523901245
NIMIQ 2                 
1 27632U 02062A   19249.83452340 -.00000301  00000-0  00000+0 0  9998
2 27632   3.7161  77.8066 0005011  36.0396 264.1785  1.00440572 61045
CORIOLIS                
1 27640U 03001A   19251.03303094 -.00000010  00000-0  15935-4 0  9992
2 27640  98.7325 259.7371 0015010 128.8815 289.4423 14.19016688863226
SORCE                   
1 27651U 03004A   19251.01233926  .00000029  00000-0  17190-4 0  9995
2 27651  39.9955 110.5849 0023518 192.6053 167.4150 14.89026660901967
NAVSTAR 51 (USA 166)    
1 27663U 03005A   19250.25343538 -.00000059  00000-0  00000+0 0  9996
2 27663  56.2601 313.1437 0106281  32.2718  39.8525  2.00568829121667
INTELSAT 907 (IS-907)   
1 27683U 03007A   19251.14563128 -.00000225  00000-0  00000+0 0  9993
2 27683   0.0222 148.8520 0002682   9.6920 213.3092  1.00269303 60589
USA 167                 
1 27691U 03008A   19250.62016378  .00000037  00000-0  00000+0 0  9995
2 27691   6.1154  60.3577 0002488   0.0418  18.8669  1.00271747  6819
NAVSTAR 52 (USA 168)    
1 27704U 03010A   19249.21254998 -.00000044  00000-0  00000+0 0  9997
2 27704  54.4212  64.6923 0246818 278.7833  81.9603  2.00564435120444
USA 169 (MILSTAR-2 4)   
1 27711U 03012A   19250.44342378 -.00000026  00000-0  00000+0 0  9994
2 27711   8.6423  46.7304 0003437 103.7258 235.3850  1.00271497  6823
GALAXY 12 (G-12)        
1 27715U 03013B   19250.92965873  .00000036  00000-0  00000-0 0  9994
2 27715   0.8291  95.1077 0002413  77.8739  19.3910  1.00272363 27336
ASIASAT 4               
1 27718U 03014A   19250.86438382  .00000131  00000-0  00000+0 0  9996
2 27718   0.0086 196.1104 0002067 334.5193 165.3807  1.00270127 60103
HELLAS-SAT 2            
1 27811U 03020A   19251.12970468 -.00000173  00000-0  00000+0 0  9990
2 27811   1.2483  95.4267 0002898  50.2206 152.7512  1.00272611 59528
THURAYA-2               
1 27825U 03026A   19251.08876549  .00000109  00000-0  00000+0 0  9999
2 27825   5.6417  32.0278 0004800 134.3392 256.4537  1.00273054 59534
OPTUS C1                
1 27831U 03028B   19250.88356084 -.00000173  00000-0  00000-0 0  9995
2 27831   0.7519  98.2555 0005373  62.2233 299.9334  1.00273768 28255
MOST                    
1 27843U 03031D   19251.06328743 -.00000007  00000-0  17116-4 0  9990
2 27843  98.7122 257.4951 0009870 184.6256 175.4831 14.20595247839361
CUTE-1 (CO-55)          
1 27844U 03031E   19250.91183831  .00000042  00000-0  38450-4 0  9993
2 27844  98.6852 257.9132 0010360 150.1838 209.9932 14.22192996839795
CUBESAT XI-IV (CO-57)   
1 27848U 03031J   19250.92712684  .00000025  00000-0  31275-4 0  9991
2 27848  98.6928 258.4455 0010048 161.2608 198.8941 14.21786335839654
ECHOSTAR 12 (RAINBOW 1) 
1 27852U 03033A   19250.90744160 -.00000221  00000-0  00000-0 0  9997
2 27852   0.0485 291.8223 0001775 257.8055  37.3435  1.00271686 59147
GALAXY 23 (G-23)        
1 27854U 03034A   19250.92410444 -.00000010  00000-0  00000-0 0  9993
2 27854   0.0159 146.5242 0003020  27.5928  24.2789  1.00273242 58933
SCISAT 1                
1 27858U 03036A   19250.78558651 -.00000009  00000-0  37957-5 0  9990
2 27858  73.9344  24.7774 0009080 294.7261  65.2967 14.77256637865766
COSMOS 2400             
1 27868U 03037A   19250.75479739  .00000011  00000-0  69236-5 0  9995
2 27868  82.4669  81.2886 0022471  70.6324 289.7171 12.45136776729699
COSMOS 2401             
1 27869U 03037B   19250.78221306  .00000030  00000-0  13905-3 0  9995
2 27869  82.4656  78.7236 0023205  69.3768 290.9799 12.45455880729880
USA 170                 
1 27875U 03040A   19250.92487883 -.00000292  00000-0  00000-0 0  9996
2 27875   5.3210  65.8827 0003872  91.3328 120.1706  1.00273082  8158
MOZHAYETS 4 (RS-22)     
1 27939U 03042A   19251.08969446  .00000086  00000-0  24018-4 0  9996
2 27939  98.0522  25.3713 0013330 164.9167 195.2417 14.66800453852475
GALAXY 13 (HORIZONS 1)  
1 27954U 03044A   19250.69265684  .00000026  00000-0  00000-0 0  9999
2 27954   0.0262 125.5527 0001823 188.7233 154.5529  1.00268211 21771
IRS-P6 (RESOURCESAT-1)  
1 28051U 03046A   19251.24174923 -.00000002  00000-0  14363-4 0  9993
2 28051  98.5142 327.6792 0058661 146.2352 214.2601 14.34163922825794
DMSP 5D-3 F16 (USA 172) 
1 28054U 03048A   19250.91100487 -.00000103  00000-0 -31170-4 0  9993
2 28054  98.8741 226.4987 0006885 314.5111  98.2357 14.13677439819725
CHUANGXIN 1 (CX-1)      
1 28058U 03049B   19251.20050469  .00000015  00000-0  16959-4 0  9993
2 28058  98.7164  58.9997 0014009  90.1245 270.1552 14.46972122838382
YAMAL 202               
1 28089U 03053A   19250.95235814 -.00000338  00000-0  00000-0 0  9997
2 28089   0.1801  97.9366 0004914  48.6869 278.1571  1.00571974 57870
UFO 11 (USA 174)        
1 28117U 03057A   19250.87655014 -.00000119  00000-0  00000-0 0  9999
2 28117   5.7804  36.9708 0001388 263.7629  76.5626  1.00275658 57630
NAVSTAR 53 (USA 175)    
1 28129U 03058A   19249.94952771 -.00000049  00000-0  00000+0 0  9990
2 28129  53.1844 123.7979 0071657 285.6376  73.6442  2.00558425115150
USA 176 (DSP 22)        
1 28158U 04004A   19250.90744184 -.00000235  00000-0  00000-0 0  9997
2 28158   8.8031  40.8215 0000468 104.6488 255.1915  1.00269383  8115
ABS-4 (MOBISAT-1)       
1 28184U 04007A   19250.87375859  .00000018  00000-0  00000-0 0  9992
2 28184   0.0208 240.1007 0000969 321.6664 160.4780  1.00270025 27520
EUTELSAT 7A             
1 28187U 04008A   19250.93473648  .00000025  00000-0  00000-0 0  9996
2 28187   0.0661 356.6971 0006055 172.1956 161.3067  1.00273592 56548
NAVSTAR 54 (USA 177)    
1 28190U 04009A   19250.41536486 -.00000100  00000-0  00000+0 0  9998
2 28190  56.2782  13.9117 0092293  85.5167 255.4082  2.00567205113346
SHIYAN 1 (SY-1)         
1 28220U 04012A   19250.83883928  .00000534  00000-0  47984-4 0  9995
2 28220  97.8033 213.2688 0003502 214.2397 145.8601 14.99847356838217
DIRECTV 7S              
1 28238U 04016A   19251.12499394 -.00000021  00000-0  00000+0 0  9996
2 28238   0.0263 131.4399 0003425  39.8252 101.5663  1.00271701 56247
AMC-11 (GE-11)          
1 28252U 04017A   19250.92965873  .00000047  00000-0  00000-0 0  9998
2 28252   0.0415 315.0053 0002760 201.4469  33.9180  1.00271871 56102
INTELSAT 10-02          
1 28358U 04022A   19250.86137109 -.00000033  00000-0  00000-0 0  9993
2 28358   0.0102 186.8734 0003103 337.9449 130.9317  1.00272639 55840
NAVSTAR 55 (USA 178)    
1 28361U 04023A   19250.80833166 -.00000029  00000-0  00000-0 0  9993
2 28361  54.0514 186.9340 0134334 232.8386 305.1657  2.00552603111410
APRIZESAT 2             
1 28366U 04025A   19250.70290672 -.00000002  00000-0  12974-4 0  9996
2 28366  98.2907 147.5419 0108469 137.2917 223.6765 14.36681322796257
SAUDICOMSAT 1           
1 28369U 04025D   19251.17815062  .00000027  00000-0  17645-4 0  9993
2 28369  98.2967 199.3407 0034558  44.3892 316.0065 14.52507770804808
SAUDICOMSAT 2           
1 28370U 04025E   19250.84719571 -.00000004  00000-0  11284-4 0  9995
2 28370  98.3922 195.1220 0057411 196.3232 163.6113 14.47442710801991
SAUDISAT 2              
1 28371U 04025F   19250.84744671  .00000012  00000-0  13636-4 0  9996
2 28371  98.2352 198.2579 0025451 350.6379   9.4348 14.54351698805954
APRIZESAT 1             
1 28372U 04025G   19250.81117857 -.00000002  00000-0  11323-4 0  9995
2 28372  98.3512 196.6268 0047353 124.4828 236.0852 14.49597535803246
AURA                    
1 28376U 04026A   19250.93352264  .00000074  00000-0  26557-4 0  9999
2 28376  98.2068 192.7259 0001509  88.3481 271.7890 14.57115341805631
